AMC-1 (GE-1)            
1 24315U 96054A   22211.48591024  .00000065  00000+0  00000+0 0  9999
2 24315   5.7172  72.8018 0002948  50.3924 228.9141  1.00272607 32109
AMC-3 (GE-3)            
1 24936U 97050A   22211.46960976 -.00000260  00000+0  00000+0 0  9997
2 24936   4.6458  79.1029 0002793  57.3058 268.7182  1.00272863 38217
ASTRA 1G                
1 25071U 97076A   22211.27264010  .00000116  00000+0  00000+0 0  9990
2 25071   6.3383  67.9751 0002932  63.5534 293.9136  1.00274943 90289
ASTRA 2A                
1 25462U 98050A   22211.42350786  .00000070  00000+0  00000+0 0  9999
2 25462   3.5073  85.1414 0001969  39.2868  33.2547  1.00272439 32123
AMC-4 (GE-4)            
1 25954U 99060A   22211.52887887  .00000089  00000+0  00000+0 0  9995
2 25954   1.6236  91.4247 0002891  34.0362 238.1668  1.00271407 29333
NSS-11 (AAP-1)          
1 26554U 00059A   22211.51902522  .00000027  00000+0  00000+0 0  9997
2 26554   0.0567 280.2230 0002395 191.5780 199.1676  1.00271318 27077
AMC-6 (GE-6)            
1 26580U 00067A   22211.52800687  .00000107  00000+0  00000+0 0  9994
2 26580   0.0607 276.6441 0002377 220.6837 221.8695  1.00272986 79692
ASTRA 2D                
1 26638U 00081A   22211.20258007  .00000130  00000+0  00000+0 0  9998
2 26638   7.3805  60.0256 0001954  90.9905 253.4271  1.00275782 38681
AMC-8 (GE-8)            
1 26639U 00081B   22211.52887887  .00000089  00000+0  00000+0 0  9991
2 26639   2.5522  88.1639 0002894  24.2398 251.1186  1.00272446 79118
ASTRA 2C                
1 26853U 01025A   22211.46952255 -.00000258  00000+0  00000+0 0  9992
2 26853   4.6701  78.9084 0002627  47.6847 278.0055  1.00275126 30827
ASTRA 3A                
1 27400U 02015B   22211.14463208 -.00000203  00000+0  00000+0 0  9991
2 27400   7.4802  58.8984 0000910  69.7219 144.4331  1.00270538 74492
NSS-7                   
1 27414U 02019A   22211.40807339 -.00000158  00000+0  00000+0 0  9995
2 27414   5.9967  70.9740 0002363  70.5660 293.3790  1.00271494 74351
NSS-6                   
1 27603U 02057A   22211.52199003  .00000109  00000+0  00000+0 0  9997
2 27603   1.7152  91.2078 0003257  35.7665 199.5713  1.00268805 71825
AMC-11 (GE-11)          
1 28252U 04017A   22211.24264317  .00000072  00000+0  00000+0 0  9995
2 28252   0.0466 280.1619 0002639 204.5806 139.4618  1.00273023 66663
AMC-15                  
1 28446U 04041A   22211.46306972 -.00000086  00000+0  00000+0 0  9991
2 28446   0.0552 281.0160 0002580 188.6473 260.0497  1.00272504 65109
NSS-10 (AMC-12)         
1 28526U 05003A   22211.47649859 -.00000249  00000+0  00000+0 0  9995
2 28526   2.8873  86.9232 0002900  19.8896 335.3602  1.00271558 38939
ASTRA 1KR               
1 29055U 06012A   22211.27255292  .00000122  00000+0  00000+0 0  9995
2 29055   0.0551 263.3093 0002868 268.6621 253.2066  1.00271579 31500
AMC-18                  
1 29644U 06054B   22211.46742975 -.00000213  00000+0  00000+0 0  9997
2 29644   0.0496 274.2196 0002399 215.6464 263.4723  1.00272341 57322
ASTRA 1L                
1 31306U 07016A   22211.56993878  .00000122  00000+0  00000+0 0  9993
2 31306   0.0686 298.7879 0000596 161.3000  72.4904  1.00268829 30809
ASTRA 4A (SIRIUS 4)     
1 32299U 07057A   22211.38452182  .00000035  00000+0  00000+0 0  9991
2 32299   0.0178 349.3925 0002654 139.0039 322.8216  1.00272061 37452
AMC-21                  
1 33275U 08038B   22211.53088448  .00000039  00000+0  00000+0 0  9997
2 33275   0.0671 279.7324 0002810 223.5200 231.0963  1.00273886 51279
ASTRA 1M                
1 33436U 08057A   22211.56993878  .00000122  00000+0  00000+0 0  9995
2 33436   0.0190  98.8793 0005002  37.2751  36.3877  1.00271315 31511
CIEL-2                  
1 33453U 08063A   22211.53009968  .00000061  00000+0  00000+0 0  9998
2 33453   0.0168 117.5526 0002904   8.5112 244.0605  1.00270072 49917
NSS-9                   
1 33749U 09008A   22211.52050764  .00000074  00000+0  00000+0 0  9999
2 33749   0.0533 283.4305 0001899 205.8450 189.3015  1.00272120 49314
SES-7 (PROTOSTAR 2)     
1 34941U 09027A   22211.50559638 -.00000343  00000+0  00000+0 0  9997
2 34941   0.0180  27.6724 0000332 213.2308 357.4826  1.00273351 48400
NSS-12                  
1 36032U 09058A   22211.49533387  .00000074  00000+0  00000+0 0  9995
2 36032   0.0289 314.8091 0002652 176.6287  51.9743  1.00271140 46705
SES-1                   
1 36516U 10016A   22211.46385453 -.00000112  00000+0  00000+0 0  9998
2 36516   0.0541 276.4089 0002322 205.7418 251.8914  1.00272716 44829
ASTRA 3B                
1 36581U 10021A   22211.48870664  .00000139  00000+0  00000+0 0  9999
2 36581   0.0383  26.1514 0003393 109.6784  11.6899  1.00270256 44668
SES-3                   
1 37748U 11035A   22211.46350573 -.00000099  00000+0  00000+0 0  9997
2 37748   0.0463 289.6442 0002688 196.4089 245.8777  1.00272102 40379
ASTRA 1N                
1 37775U 11041A   22211.56993878  .00000122  00000+0  00000+0 0  9992
2 37775   0.0443  26.3846 0003915  63.6001  82.5693  1.00269497 30313
SES-2                   
1 37809U 11049A   22211.46664494 -.00000193  00000+0  00000+0 0  9995
2 37809   0.0536 271.6801 0002630 213.1509 264.2242  1.00270991 39744
QUETZSAT 1              
1 37826U 11054A   22211.46865054 -.00000239  00000+0  00000+0 0  9996
2 37826   0.0116  11.3976 0002836 126.6778 261.7164  1.00271807 35673
SES-4                   
1 38087U 12007A   22211.42757672 -.00000166  00000+0  00000+0 0  9996
2 38087   0.0110   8.1463 0002402 126.5865 305.2196  1.00270378 38019
SES-5                   
1 38652U 12036A   22211.38452182  .00000036  00000+0  00000+0 0  9994
2 38652   0.0620 282.5556 0001836 198.9214 329.9178  1.00270523 30270
ASTRA 2F                
1 38778U 12051A   22211.48957865  .00000152  00000+0  00000+0 0  9998
2 38778   0.0935 252.7552 0002683 289.5502 330.1870  1.00270543 26912
SES-6                   
1 39172U 13026A   22211.47588819 -.00000258  00000+0  00000+0 0  9996
2 39172   0.0501 284.1570 0001906 194.2045 320.5471  1.00271783 33500
O3B FM5                 
1 39188U 13031A   22211.45364280 -.00000019  00000+0  00000+0 0  9996
2 39188   0.0528  23.8243 0002568 106.4401 229.7564  5.00115286166102
O3B FM4                 
1 39189U 13031B   22211.10994027 -.00000020  00000+0  00000+0 0  9999
2 39189   0.0567 354.5712 0002523 134.7585 230.6908  5.00115824166111
O3B FM2                 
1 39190U 13031C   22211.39675613 -.00000019  00000+0  00000+0 0  9997
2 39190   0.0597 350.3666 0001062 128.1578 241.4846  4.99476817166170
O3B PFM                 
1 39191U 13031D   22210.22818813 -.00000021  00000+0  00000+0 0  9993
2 39191   0.0508  14.2091 0002649 112.9875 232.8256  5.00115751165688
ASTRA 2E                
1 39285U 13056A   22211.48966584  .00000153  00000+0  00000+0 0  9997
2 39285   0.0589 349.1113 0002311 144.5804  19.1802  1.00275292 32224
SES-8                   
1 39460U 13071A   22211.50289316 -.00000267  00000+0  00000+0 0  9990
2 39460   0.0611 260.2953 0002727 202.5359 121.3201  1.00272811 30211
ASTRA 5B                
1 39617U 14011B   22211.49027625  .00000157  00000+0  00000+0 0  9997
2 39617   0.0315  32.6714 0003433 102.1613  21.2353  1.00272421 30454
O3B FM3                 
1 40079U 14038A   22210.28293163 -.00000021  00000+0  00000+0 0  9999
2 40079   0.0547   2.4068 0005057 122.4258 235.2129  5.00115416142069
O3B FM7                 
1 40080U 14038B   22211.22845641 -.00000020  00000+0  00000+0 0  9999
2 40080   0.0588   0.3845 0000993 161.3332 198.2841  5.00115488146944
O3B FM6                 
1 40081U 14038C   22211.45472068 -.00000019  00000+0  00000+0 0  9992
2 40081   0.0542   1.2598 0002691 128.4784 230.2837  5.00115466146894
O3B FM8                 
1 40082U 14038D   22211.30878295 -.00000019  00000+0  00000+0 0  9999
2 40082   0.0542 357.9575 0002684 127.5540 234.5118  5.00115702147010
O3B FM10                
1 40348U 14083A   22211.33478938 -.00000019  00000+0  00000+0 0  9997
2 40348   0.0483   9.0604 0002632 119.1925 231.7689  5.00115164138962
O3B FM11                
1 40349U 14083B   22210.94848714 -.00000020  00000+0  00000+0 0  9999
2 40349   0.0526  10.9633 0002222 130.6978 218.3528  5.00115432138955
O3B FM12                
1 40350U 14083C   22211.37546391 -.00000019  00000+0  00000+0 0  9993
2 40350   0.0524   9.9658 0002683 122.3993 227.6558  5.00115279138995
O3B FM9                 
1 40351U 14083D   22211.40241152 -.00000019  00000+0  00000+0 0  9995
2 40351   0.0536  11.7080 0002582 117.7336 230.5796  5.00115609139148
ASTRA 2G                
1 40364U 14089A   22211.48957865  .00000152  00000+0  00000+0 0  9995
2 40364   0.0328   1.6844 0003928  83.3821  67.4458  1.00272742 27752
SES-9                   
1 41380U 16013A   22210.93159380 -.00000343  00000+0  00000+0 0  9991
2 41380   0.0191 302.2528 0002007 169.1283 279.8545  1.00269155 23217
SES-10                  
1 42432U 17017A   22211.33730201 -.00000270  00000+0  00000+0 0  9996
2 42432   0.0157  59.8853 0002751  68.9085 233.6832  1.00272857 19525
SES-15                  
1 42709U 17026A   22210.62781062  .00000062  00000+0  00000+0 0  9993
2 42709   0.0204   0.6647 0000350 137.2411 266.1956  1.00268832 19915
SES-11 (ECHOSTAR 105)   
1 42967U 17063A   22211.46306972 -.00000087  00000+0  00000+0 0  9994
2 42967   0.0154  69.9410 0002218  62.8105 237.0664  1.00271741 17597
SES-14                  
1 43175U 18012B   22211.47449297 -.00000276  00000+0  00000+0 0  9990
2 43175   0.0386 282.4748 0000861 200.4591 308.4544  1.00271516 16839
O3B FM15                
1 43231U 18024A   22211.26847790 -.00000020  00000+0  00000+0 0  9990
2 43231   0.0448   7.9510 0002883 123.4036 228.6684  5.00116016 80096
O3B FM16                
1 43232U 18024B   22211.32185384 -.00000019  00000+0  00000+0 0  9990
2 43232   0.0408   7.6410 0002845 123.8869 228.4948  5.00115933 80015
O3B FM14                
1 43233U 18024C   22211.36143292 -.00000019  00000+0  00000+0 0  9997
2 43233   0.0394   6.5596 0002661 126.0892 227.3719  5.00115316 80020
O3B FM13                
1 43234U 18024D   22208.01678119 -.00000024  00000+0  00000+0 0  9993
2 43234   0.0510  40.2456 0003497  99.1240 220.6543  5.00115073 79979
SES-12                  
1 43488U 18049A   22211.35943170 -.00000267  00000+0  00000+0 0  9993
2 43488   0.0121  46.0055 0000976 198.4353 287.9040  1.00271332 15205
O3B FM20                
1 44112U 19020A   22211.38815957 -.00000019  00000+0  00000+0 0  9997
2 44112   0.0483   8.2099 0002881 130.5014 221.3087  5.00115480 60643
O3B FM19                
1 44113U 19020B   22210.81524545 -.00000020  00000+0  00000+0 0  9997
2 44113   0.0551  23.5318 0001731 107.7214 228.7598  5.00115059 60689
O3B FM17                
1 44114U 19020C   22211.09569859 -.00000020  00000+0  00000+0 0  9996
2 44114   0.0438 344.0057 0002978 148.2649 227.7528  5.00115590 60582
O3B FM18                
1 44115U 19020D   22211.04223647 -.00000020  00000+0  00000+0 0  9994
2 44115   0.0484   8.7316 0002876 119.7581 231.5342  5.00115803 60709
SES-17                  
1 49332U 21095A   22211.47056896 -.00000269  00000+0  00000+0 0  9997
2 49332   0.0150  95.2747 0000924  38.7063 276.3876  1.00269818  3620
SES-22                  
1 52933U 22071A   22211.50396561  .00000073  00000+0  00000+0 0  9995
2 52933   0.0541 261.9429 0000160  57.2943  34.3983  1.00474991   335
